NORAD_CAT_ID,OBJECT_NAME,OBJECT_TYPE,EPOCH,MEAN_MOTION,ECCENTRICITY,INCLINATION,RA_OF_ASC_NODE,ARG_OF_PERICENTER,MEAN_ANOMALY,BSTAR,MEAN_MOTION_DOT,MEAN_MOTION_DDOT,TLE_LINE0,TLE_LINE1,TLE_LINE2,SEMIMAJOR_AXIS,PERIOD,APOGEE,PERIGEE,DECAYED
51969.0,STARLINK-3680,PAYLOAD,2023-03-10 19:01:46,15.08044377,0.0001143,53.1417,264.3811,75.5641,284.5476,0.00040373,6.007e-05,0.0,0 STARLINK-3680,1 51969U 22025P   23069.79289691  .00006007  00000-0  40373-3 0  9995,2 51969  53.1417 264.3811 0001143  75.5641 284.5476 15.08044377 57013,6920.313,95.488,542.969,541.387,0.0
51969.0,STARLINK-3680,PAYLOAD,2023-03-10 20:37:12,15.08041138,0.0001157,53.1416,264.0838,73.4749,286.6369,0.0012683,0.0001952,0.0,0 STARLINK-3680,1 51969U 22025P   23069.85917329  .00019520  00000-0  12683-2 0  9994,2 51969  53.1416 264.0838 0001157  73.4749 286.6369 15.08041138 55912,6920.323,95.488,542.989,541.388,0.0
51969.0,STARLINK-3680,PAYLOAD,2023-03-10 23:48:04,15.08048923,0.0001164,53.1413,263.4879,73.9475,286.1644,0.0015879,0.00024533,0.0,0 STARLINK-3680,1 51969U 22025P   23069.99172198  .00024533  00000-0  15879-2 0  9996,2 51969  53.1413 263.4879 0001164  73.9475 286.1644 15.08048923 57042,6920.299,95.488,542.97,541.359,0.0
51969.0,STARLINK-3680,PAYLOAD,2023-03-11 12:31:34,15.0802969,9.7e-05,53.1417,261.1053,87.7479,272.3623,0.00074392,0.00011314,0.0,0 STARLINK-3680,1 51969U 22025P   23070.52192965  .00011314  00000-0  74392-3 0  9990,2 51969  53.1417 261.1053 0000970  87.7479 272.3623 15.08029690 56016,6920.358,95.489,542.895,541.552,0.0
51969.0,STARLINK-3680,PAYLOAD,2023-03-11 22:04:11,15.08040424,0.0001266,53.1414,259.32,77.2942,282.8191,0.0013888,0.00021407,0.0,0 STARLINK-3680,1 51969U 22025P   23070.91958102  .00021407  00000-0  13888-2 0  9992,2 51969  53.1414 259.3200 0001266  77.2942 282.8191 15.08040424 56074,6920.325,95.488,543.067,541.314,0.0
51969.0,STARLINK-3680,PAYLOAD,2023-03-12 21:55:43,15.08060158,0.0001269,53.1405,254.8532,82.4874,277.6261,0.00099699,0.00015282,0.0,0 STARLINK-3680,1 51969U 22025P   23071.91369920  .00015282  00000-0  99699-3 0  9996,2 51969  53.1405 254.8532 0001269  82.4874 277.6261 15.08060158 56220,6920.265,95.487,543.008,541.252,0.0
51969.0,STARLINK-3680,PAYLOAD,2023-03-13 21:47:15,15.08050479,0.0001579,53.1403,250.3869,57.3279,302.7864,0.00050238,7.548e-05,0.0,0 STARLINK-3680,1 51969U 22025P   23072.90782313  .00007548  00000-0  50238-3 0  9993,2 51969  53.1403 250.3869 0001579  57.3279 302.7864 15.08050479 56376,6920.295,95.488,543.252,541.067,0.0
51969.0,STARLINK-3680,PAYLOAD,2023-03-14 12:06:11,15.08045029,0.0002379,53.14,247.7087,50.8723,309.2479,0.00027715,4.033e-05,0.0,0 STARLINK-3680,1 51969U 22025P   23073.50429941  .00004033  00000-0  27715-3 0  9995,2 51969  53.1400 247.7087 0002379  50.8723 309.2479 15.08045029 56465,6920.311,95.488,543.823,540.53,0.0
51969.0,STARLINK-3680,PAYLOAD,2023-03-14 18:27:55,15.08063519,0.0002976,53.1386,246.5168,85.0244,275.1086,0.0004816,7.226e-05,0.0,0 STARLINK-3680,1 51969U 22025P   23073.76939139  .00007226  00000-0  48160-3 0  9992,2 51969  53.1386 246.5168 0002976  85.0244 275.1086 15.08063519 57613,6920.255,95.487,544.179,540.06,0.0
51969.0,STARLINK-3680,PAYLOAD,2023-03-15 04:00:32,15.08032205,4.41e-05,53.1383,244.7307,262.5379,97.5561,1.0222e-05,-1.26e-06,0.0,0 STARLINK-3680,1 51969U 22025P   23074.16704166 -.00000126  00000-0  10222-4 0  9999,2 51969  53.1383 244.7307 0000441 262.5379  97.5561 15.08032205 57679,6920.351,95.489,542.521,541.91,0.0
51969.0,STARLINK-3680,PAYLOAD,2023-03-15 11:57:43,15.08035453,0.0001351,53.136,243.2401,74.5534,285.5606,-0.00010356,-1.898e-05,0.0,0 STARLINK-3680,1 51969U 22025P   23074.49841939 -.00001898  00000-0 -10356-3 0  9990,2 51969  53.1360 243.2401 0001351  74.5534 285.5606 15.08035453 56618,6920.341,95.488,543.141,541.271,0.0
51969.0,STARLINK-3680,PAYLOAD,2023-03-15 19:54:53,15.08055339,0.0001307,53.1296,241.7538,78.7431,281.3707,0.00051161,7.693e-05,0.0,0 STARLINK-3680,1 51969U 22025P   23074.82978826  .00007693  00000-0  51161-3 0  9999,2 51969  53.1296 241.7538 0001307  78.7431 281.3707 15.08055339 57772,6920.28,95.487,543.049,541.24,0.0
51969.0,STARLINK-3680,PAYLOAD,2023-03-15 21:30:19,15.08059367,0.000134,53.1336,241.4553,79.8929,280.2213,0.0010067,0.00015433,0.0,0 STARLINK-3680,1 51969U 22025P   23074.89606292  .00015433  00000-0  10067-2 0  9991,2 51969  53.1336 241.4553 0001340  79.8929 280.2213 15.08059367 56675,6920.268,95.487,543.06,541.205,0.0
51969.0,STARLINK-3680,PAYLOAD,2023-03-16 03:52:04,15.08037339,7.18e-05,53.132,240.265,85.3972,274.71,0.00020445,2.899e-05,0.0,0 STARLINK-3680,1 51969U 22025P   23075.16116617  .00002899  00000-0  20445-3 0  9993,2 51969  53.1320 240.2650 0000718  85.3972 274.7100 15.08037339 57827,6920.335,95.488,542.697,541.703,0.0
51969.0,STARLINK-3680,PAYLOAD,2023-03-16 10:13:49,15.08037252,0.0001626,53.1314,239.0749,82.9385,277.1791,0.00049813,7.479e-05,0.0,0 STARLINK-3680,1 51969U 22025P   23075.42627147  .00007479  00000-0  49813-3 0  9996,2 51969  53.1314 239.0749 0001626  82.9385 277.1791 15.08037252 56753,6920.335,95.488,543.325,541.075,0.0
51969.0,STARLINK-3680,PAYLOAD,2023-03-16 19:46:27,15.08023522,0.0001556,53.1318,237.2889,83.0078,277.1089,0.00075038,0.00011413,0.0,0 STARLINK-3680,1 51969U 22025P   23075.82392699  .00011413  00000-0  75038-3 0  9992,2 51969  53.1318 237.2889 0001556  83.0078 277.1089 15.08023522 56817,6920.377,95.489,543.319,541.165,0.0
51969.0,STARLINK-3680,PAYLOAD,2023-03-16 22:57:19,15.08039704,0.0001327,53.1318,236.6921,81.5041,278.6101,0.00080508,0.00012273,0.0,0 STARLINK-3680,1 51969U 22025P   23075.95647438  .00012273  00000-0  80508-3 0  9993,2 51969  53.1318 236.6921 0001327  81.5041 278.6101 15.08039704 57941,6920.328,95.488,543.111,541.274,0.0
51969.0,STARLINK-3680,PAYLOAD,2023-03-17 03:43:37,15.08027273,3.81e-05,53.1325,235.7994,128.0761,232.0265,0.00033012,4.857e-05,0.0,0 STARLINK-3680,1 51969U 22025P   23076.15529959  .00004857  00000-0  33012-3 0  9990,2 51969  53.1325 235.7994 0000381 128.0761 232.0265 15.08027273 57970,6920.366,95.489,542.494,541.967,0.0
51969.0,STARLINK-3680,PAYLOAD,2023-03-17 10:05:22,15.08031681,9.54e-05,53.1307,234.609,97.5171,262.5928,0.0008998,0.0001375,0.0,0 STARLINK-3680,1 51969U 22025P   23076.42040403  .00013750  00000-0  89980-3 0  9999,2 51969  53.1307 234.6090 0000954  97.5171 262.5928 15.08031681 56900,6920.352,95.489,542.877,541.557,0.0
51969.0,STARLINK-3680,PAYLOAD,2023-03-18 03:35:09,15.08049711,4.37e-05,53.1294,231.334,237.0187,123.0761,0.00071229,0.00010826,0.0,0 STARLINK-3680,1 51969U 22025P   23077.14941861  .00010826  00000-0  71229-3 0  9995,2 51969  53.1294 231.3340 0000437 237.0187 123.0761 15.08049711 58126,6920.297,95.488,542.464,541.86,0.0
51969.0,STARLINK-3680,PAYLOAD,2023-03-18 19:29:31,15.08068567,0.0001264,53.1294,228.3564,84.2526,275.8609,0.0018676,0.00028939,0.0,0 STARLINK-3680,1 51969U 22025P   23077.81216908  .00028939  00000-0  18676-2 0  9996,2 51969  53.1294 228.3564 0001264  84.2526 275.8609 15.08068567 57113,6920.239,95.486,542.979,541.23,0.0
51969.0,STARLINK-3680,PAYLOAD,2023-03-19 03:26:42,15.08055043,0.0001444,53.1299,226.8675,88.6685,271.4471,0.00077944,0.00011877,0.0,0 STARLINK-3680,1 51969U 22025P   23078.14354355  .00011877  00000-0  77944-3 0  9999,2 51969  53.1299 226.8675 0001444  88.6685 271.4471 15.08055043 58270,6920.281,95.487,543.145,541.146,0.0
51969.0,STARLINK-3680,PAYLOAD,2023-03-19 12:59:19,15.08047059,0.0001084,53.1285,225.0802,105.4316,254.6794,0.0012763,0.00019648,0.0,0 STARLINK-3680,1 51969U 22025P   23078.54119355  .00019648  00000-0  12763-2 0  9993,2 51969  53.1285 225.0802 0001084 105.4316 254.6794 15.08047059 57220,6920.305,95.488,542.92,541.42,0.0
51969.0,STARLINK-3680,PAYLOAD,2023-03-19 14:34:45,15.08049057,0.0001328,53.129,224.7823,106.0733,254.0404,0.0014435,0.00022269,0.0,0 STARLINK-3680,1 51969U 22025P   23078.60746818  .00022269  00000-0  14435-2 0  9991,2 51969  53.1290 224.7823 0001328 106.0733 254.0404 15.08049057 58342,6920.299,95.488,543.083,541.245,0.0
51969.0,STARLINK-3680,PAYLOAD,2023-03-19 19:21:03,15.0806121,0.0001234,53.1284,223.8901,93.5324,266.5808,0.0022389,0.00034771,0.0,0 STARLINK-3680,1 51969U 22025P   23078.80629119  .00034771  00000-0  22389-2 0  9995,2 51969  53.1284 223.8901 0001234  93.5324 266.5808 15.08061210 57265,6920.262,95.487,542.981,541.273,0.0
51969.0,STARLINK-3680,PAYLOAD,2023-03-20 12:50:51,15.08032535,0.0001244,53.1295,220.6147,99.6222,260.4909,0.00096764,0.00014811,0.0,0 STARLINK-3680,1 51969U 22025P   23079.53532402  .00014811  00000-0  96764-3 0  9996,2 51969  53.1295 220.6147 0001244  99.6222 260.4909 15.08032535 57374,6920.35,95.489,543.075,541.354,0.0
51969.0,STARLINK-3680,PAYLOAD,2023-03-20 16:01:44,15.08036812,0.0001372,53.1291,220.0202,77.2677,282.8467,0.0016377,0.00025306,0.0,0 STARLINK-3680,1 51969U 22025P   23079.66787646  .00025306  00000-0  16377-2 0  9994,2 51969  53.1291 220.0202 0001372  77.2677 282.8467 15.08036812 58509,6920.337,95.488,543.151,541.252,0.0
51969.0,STARLINK-3680,PAYLOAD,2023-03-21 12:42:24,15.08054962,0.000136,53.1292,216.1483,88.5236,271.591,0.0017656,0.00027326,0.0,0 STARLINK-3680,1 51969U 22025P   23080.52945037  .00027326  00000-0  17656-2 0  9996,2 51969  53.1292 216.1483 0001360  88.5236 271.5910 15.08054962 57525,6920.281,95.487,543.087,541.205,0.0
51969.0,STARLINK-3680,PAYLOAD,2023-03-21 20:39:34,15.08079585,0.0001372,53.1286,214.6589,72.4796,287.6344,0.0021098,0.00032756,0.0,0 STARLINK-3680,1 51969U 22025P   23080.86081821  .00032756  00000-0  21098-2 0  9993,2 51969  53.1286 214.6589 0001372  72.4796 287.6344 15.08079585 58689,6920.206,95.486,543.02,541.121,0.0
51969.0,STARLINK-3680,PAYLOAD,2023-03-22 01:25:52,15.08043672,0.000121,53.1292,213.7663,182.4885,177.61,-0.0015891,-0.00024948,0.0,0 STARLINK-3680,1 51969U 22025P   23081.05963667 -.00024948  00000-0 -15891-2 0  9992,2 51969  53.1292 213.7663 0001210 182.4885 177.6100 15.08043672 58711,6920.316,95.488,543.018,541.343,0.0
